NORAD_CAT_ID,OBJECT_NAME,OBJECT_TYPE,EPOCH,MEAN_MOTION,ECCENTRICITY,INCLINATION,RA_OF_ASC_NODE,ARG_OF_PERICENTER,MEAN_ANOMALY,BSTAR,MEAN_MOTION_DOT,MEAN_MOTION_DDOT,TLE_LINE0,TLE_LINE1,TLE_LINE2,SEMIMAJOR_AXIS,PERIOD,APOGEE,PERIGEE,DECAYED
56469.0,STARLINK-5518,PAYLOAD,2024-01-15 04:31:23,14.98338374,0.000292,70.0007,302.6627,265.8134,94.2692,0.00014377,1.623e-05,0.0,0 STARLINK-5518,1 56469U 23064X   24015.18846303  .00001623  00000-0  14377-3 0  9997,2 56469  70.0007 302.6627 0002920 265.8134  94.2692 14.98338374 38580,6950.167,96.106,574.061,570.003,0.0
56469.0,STARLINK-5518,PAYLOAD,2024-01-15 18:56:37,14.98323876,0.0002382,70.0017,301.1498,269.8242,90.2644,-9.2143e-05,-1.192e-05,0.0,0 STARLINK-5518,1 56469U 23064X   24015.78932107 -.00001192  00000-0 -92143-4 0  9992,2 56469  70.0017 301.1498 0002382 269.8242  90.2644 14.98323876 38671,6950.212,96.107,573.732,570.421,0.0
56469.0,STARLINK-5518,PAYLOAD,2024-01-15 20:32:45,14.98320996,0.0002636,70.0018,300.9815,265.6332,94.4526,-0.00012442,-1.577e-05,0.0,0 STARLINK-5518,1 56469U 23064X   24015.85608327 -.00001577  00000-0 -12442-3 0  9994,2 56469  70.0018 300.9815 0002636 265.6332  94.4526 14.98320996 38325,6950.221,96.108,573.918,570.254,0.0
56469.0,STARLINK-5518,PAYLOAD,2024-01-16 04:33:26,14.98319705,0.0002704,70.001,300.1397,266.0693,94.0157,-0.00013983,-1.76e-05,0.0,0 STARLINK-5518,1 56469U 23064X   24016.18988642 -.00001760  00000-0 -13983-3 0  9997,2 56469  70.0010 300.1397 0002704 266.0693  94.0157 14.98319705 38372,6950.225,96.108,573.969,570.21,0.0
56469.0,STARLINK-5518,PAYLOAD,2024-01-16 18:58:38,14.98333912,0.0003648,69.9995,298.6254,278.6177,81.4569,-9.2539e-05,-1.197e-05,0.0,0 STARLINK-5518,1 56469U 23064X   24016.79071939 -.00001197  00000-0 -92539-4 0  9995,2 56469  69.9995 298.6254 0003648 278.6177  81.4569 14.98333912 38821,6950.181,96.107,574.581,569.51,0.0
56469.0,STARLINK-5518,PAYLOAD,2024-01-16 22:10:53,14.98334586,0.0003345,70.0001,298.2871,276.4503,83.6275,-1.0042e-05,-2.13e-06,0.0,0 STARLINK-5518,1 56469U 23064X   24016.92423510 -.00000213  00000-0 -10042-4 0  9993,2 56469  70.0001 298.2871 0003345 276.4503  83.6275 14.98334586 38484,6950.179,96.107,574.369,569.719,0.0
56469.0,STARLINK-5518,PAYLOAD,2024-01-17 02:59:17,14.98343438,0.0002974,70.0001,297.7816,269.6232,90.4586,6.7127e-05,7.08e-06,0.0,0 STARLINK-5518,1 56469U 23064X   24017.12450638  .00000708  00000-0  67127-4 0  9990,2 56469  70.0001 297.7816 0002974 269.6232  90.4586 14.98343438 38877,6950.151,96.106,574.083,569.949,0.0
56469.0,STARLINK-5518,PAYLOAD,2024-01-17 04:35:25,14.98345101,0.0002947,70.0003,297.6139,268.9835,91.0986,8.9004e-05,9.7e-06,0.0,0 STARLINK-5518,1 56469U 23064X   24017.19126433  .00000970  00000-0  89004-4 0  9999,2 56469  70.0003 297.6139 0002947 268.9835  91.0986 14.98345101 38529,6950.146,96.106,574.059,569.963,0.0
56469.0,STARLINK-5518,PAYLOAD,2024-01-17 19:00:38,14.98327145,0.0002366,70.0017,296.102,251.2603,108.8299,0.00017616,2.009e-05,0.0,0 STARLINK-5518,1 56469U 23064X   24017.79211204  .00002009  00000-0  17616-3 0  9990,2 56469  70.0017 296.1020 0002366 251.2603 108.8299 14.98327145 38971,6950.202,96.107,573.711,570.422,0.0
56469.0,STARLINK-5518,PAYLOAD,2024-01-17 22:12:54,14.98327065,0.0002356,70.0018,295.7653,245.9802,114.1111,0.00018434,2.107e-05,0.0,0 STARLINK-5518,1 56469U 23064X   24017.92563177  .00002107  00000-0  18434-3 0  9992,2 56469  70.0018 295.7653 0002356 245.9802 114.1111 14.98327065 38636,6950.202,96.107,573.704,570.429,0.0
56469.0,STARLINK-5518,PAYLOAD,2024-01-18 03:01:19,14.9831905,0.0002375,70.0013,295.2572,264.2537,95.8352,0.00022759,2.623e-05,0.0,0 STARLINK-5518,1 56469U 23064X   24018.12591729  .00002623  00000-0  22759-3 0  9997,2 56469  70.0013 295.2572 0002375 264.2537  95.8352 14.98319050 39027,6950.227,96.108,573.742,570.441,0.0
56469.0,STARLINK-5518,PAYLOAD,2024-01-18 04:37:27,14.98321706,0.0002259,70.0019,295.0911,245.5689,114.5235,0.00017373,1.98e-05,0.0,0 STARLINK-5518,1 56469U 23064X   24018.19267651  .00001980  00000-0  17373-3 0  9999,2 56469  70.0019 295.0911 0002259 245.5689 114.5235 14.98321706 38679,6950.219,96.108,573.654,570.513,0.0
56469.0,STARLINK-5518,PAYLOAD,2024-01-18 19:02:39,14.98335931,0.0002408,70.0017,293.5769,245.2326,114.8583,-5.5304e-05,-7.53e-06,0.0,0 STARLINK-5518,1 56469U 23064X   24018.79351330 -.00000753  00000-0 -55304-4 0  9999,2 56469  70.0017 293.5769 0002408 245.2326 114.8583 14.98335931 39127,6950.175,96.107,573.713,570.366,0.0
56469.0,STARLINK-5518,PAYLOAD,2024-01-18 22:14:55,14.98335155,0.0002436,70.0016,293.2402,244.586,115.5047,-6.2337e-05,-8.37e-06,0.0,0 STARLINK-5518,1 56469U 23064X   24018.92703330 -.00000837  00000-0 -62337-4 0  9992,2 56469  70.0016 293.2402 0002436 244.5860 115.5047 14.98335155 38785,6950.177,96.107,573.735,570.349,0.0
56469.0,STARLINK-5518,PAYLOAD,2024-01-19 04:39:27,14.98336102,0.000239,70.0014,292.5656,251.205,108.885,-4.6631e-05,-6.49e-06,0.0,0 STARLINK-5518,1 56469U 23064X   24019.19407164 -.00000649  00000-0 -46631-4 0  9998,2 56469  70.0014 292.5656 0002390 251.2050 108.8850 14.98336102 38826,6950.174,96.107,573.7,570.378,0.0
56469.0,STARLINK-5518,PAYLOAD,2024-01-19 19:04:40,14.98333579,0.0002448,70.0013,291.0504,250.9613,109.1281,1.5818e-05,9.6e-07,0.0,0 STARLINK-5518,1 56469U 23064X   24019.79490885  .00000096  00000-0  15818-4 0  9993,2 56469  70.0013 291.0504 0002448 250.9613 109.1281 14.98333579 39273,6950.182,96.107,573.748,570.345,0.0
56469.0,STARLINK-5518,PAYLOAD,2024-01-19 22:16:56,14.98333272,0.0002469,70.0013,290.7138,250.4383,109.651,1.0282e-05,3e-07,0.0,0 STARLINK-5518,1 56469U 23064X   24019.92842880  .00000030  00000-0  10282-4 0  9992,2 56469  70.0013 290.7138 0002469 250.4383 109.6510 14.98333272 38936,6950.183,96.107,573.764,570.332,0.0
56469.0,STARLINK-5518,PAYLOAD,2024-01-20 03:05:20,14.98333337,0.0002465,70.0012,290.2089,249.9402,110.1492,1.0927e-05,3.7e-07,0.0,0 STARLINK-5518,1 56469U 23064X   24020.12870828  .00000037  00000-0  10927-4 0  9992,2 56469  70.0012 290.2089 0002465 249.9402 110.1492 14.98333337 38967,6950.183,96.107,573.761,570.334,0.0
56469.0,STARLINK-5518,PAYLOAD,2024-01-20 19:06:41,14.98323358,0.0002355,70.0017,288.5249,250.8678,109.2226,3.8053e-06,-4.7e-07,0.0,0 STARLINK-5518,1 56469U 23064X   24020.79631490 -.00000047  00000-0  38053-5 0  9998,2 56469  70.0017 288.5249 0002355 250.8678 109.2226 14.98323358 39422,6950.213,96.107,573.715,570.442,0.0
56469.0,STARLINK-5518,PAYLOAD,2024-01-20 22:18:57,14.98321752,0.0002415,70.0015,288.1879,250.9833,109.1064,-1.9971e-05,-3.31e-06,0.0,0 STARLINK-5518,1 56469U 23064X   24020.92983698 -.00000331  00000-0 -19971-4 0  9997,2 56469  70.0015 288.1879 0002415 250.9833 109.1064 14.98321752 39083,6950.218,96.108,573.762,570.405,0.0
56469.0,STARLINK-5518,PAYLOAD,2024-01-21 03:07:22,14.98320796,0.000244,70.0013,287.6836,248.9721,111.1177,-7.9461e-05,-1.041e-05,0.0,0 STARLINK-5518,1 56469U 23064X   24021.13012050 -.00001041  00000-0 -79461-4 0  9995,2 56469  70.0013 287.6836 0002440 248.9721 111.1177 14.98320796 39118,6950.221,96.108,573.782,570.39,0.0
56469.0,STARLINK-5518,PAYLOAD,2024-01-21 19:08:42,14.98330269,0.000277,70.0006,286.0001,263.2935,96.7908,2.6952e-05,2.29e-06,0.0,0 STARLINK-5518,1 56469U 23064X   24021.79771210  .00000229  00000-0  26952-4 0  9999,2 56469  70.0006 286.0001 0002770 263.2935  96.7908 14.98330269 39576,6950.192,96.107,573.982,570.132,0.0
56469.0,STARLINK-5518,PAYLOAD,2024-01-21 22:20:58,14.98330506,0.000286,70.0004,285.663,269.1614,90.9218,3.7783e-05,3.58e-06,0.0,0 STARLINK-5518,1 56469U 23064X   24021.93123170  .00000358  00000-0  37783-4 0  9998,2 56469  70.0004 285.6630 0002860 269.1614  90.9218 14.98330506 39233,6950.191,96.107,574.044,570.069,0.0
56469.0,STARLINK-5518,PAYLOAD,2024-01-22 03:09:22,14.98336168,0.0002798,70.0002,285.158,262.6172,97.4669,6.07e-05,6.31e-06,0.0,0 STARLINK-5518,1 56469U 23064X   24022.13150683  .00000631  00000-0  60700-4 0  9999,2 56469  70.0002 285.1580 0002798 262.6172  97.4669 14.98336168 39622,6950.174,96.107,573.983,570.094,0.0
56469.0,STARLINK-5518,PAYLOAD,2024-01-22 19:10:43,14.98326344,0.0002821,70.0003,283.4751,264.4205,95.6632,6.0865e-05,6.33e-06,0.0,0 STARLINK-5518,1 56469U 23064X   24022.79911281  .00000633  00000-0  60865-4 0  9994,2 56469  70.0003 283.4751 0002821 264.4205  95.6632 14.98326344 39724,6950.204,96.107,574.03,570.109,0.0
56469.0,STARLINK-5518,PAYLOAD,2024-01-22 22:22:59,14.98325886,0.0002838,70.0002,283.1381,264.2584,95.8251,5.1167e-05,5.18e-06,0.0,0 STARLINK-5518,1 56469U 23064X   24022.93263347  .00000518  00000-0  51167-4 0  9990,2 56469  70.0002 283.1381 0002838 264.2584  95.8251 14.98325886 39386,6950.206,96.107,574.043,570.098,0.0
56469.0,STARLINK-5518,PAYLOAD,2024-01-23 03:11:23,14.98329929,0.0002771,70.0003,282.6334,263.3163,96.7681,9.5331e-05,1.045e-05,0.0,0 STARLINK-5518,1 56469U 23064X   24023.13290977  .00001045  00000-0  95331-4 0  9999,2 56469  70.0003 282.6334 0002771 263.3163  96.7681 14.98329929 39411,6950.193,96.107,573.984,570.132,0.0
56469.0,STARLINK-5518,PAYLOAD,2024-01-23 22:24:59,14.98336423,0.0002716,70.0002,280.6136,263.0065,97.0785,7.3231e-07,-8.4e-07,0.0,0 STARLINK-5518,1 56469U 23064X   24023.93402645 -.00000084  00000-0  73231-6 0  9994,2 56469  70.0002 280.6136 0002716 263.0065  97.0785 14.98336423 39534,6950.173,96.107,573.926,570.15,0.0
56469.0,STARLINK-5518,PAYLOAD,2024-01-24 03:13:23,14.9833937,0.0002674,70.0002,280.1089,262.0557,98.0299,3.5892e-05,3.35e-06,0.0,0 STARLINK-5518,1 56469U 23064X   24024.13430251  .00000335  00000-0  35892-4 0  9998,2 56469  70.0002 280.1089 0002674 262.0557  98.0299 14.98339370 39922,6950.164,96.106,573.887,570.17,0.0
56469.0,STARLINK-5518,PAYLOAD,2024-01-24 19:14:44,14.98327465,0.0002517,70.0006,278.4268,247.3868,112.7025,-1.5555e-05,-2.78e-06,0.0,0 STARLINK-5518,1 56469U 23064X   24024.80190972 -.00000278  00000-0 -15555-4 0  9997,2 56469  70.0006 278.4268 0002517 247.3868 112.7025 14.98327465 40028,6950.201,96.107,573.815,570.316,0.0
